[{"OBJECT_NAME":"OBJECT A","OBJECT_ID":"2025-310A","EPOCH":"2026-02-21T15:01:11.724096","MEAN_MOTION":14.75718788,"ECCENTRICITY":0.00037722,"INCLINATION":97.9674,"RA_OF_ASC_NODE":61.5806,"ARG_OF_PERICENTER":90.9436,"MEAN_ANOMALY":269.2206,"EPHEMERIS_TYPE":0,"CLASSIFICATION_TYPE":"U","NORAD_CAT_ID":67234,"ELEMENT_SET_NO":999,"REV_AT_EPOCH":858,"BSTAR":9.699469e-6,"MEAN_MOTION_DOT":1.6e-7,"MEAN_MOTION_DDOT":0},{"OBJECT_NAME":"COSMOS 2251 DEB","OBJECT_ID":"1993-036CC","EPOCH":"2026-03-09T00:48:08.273376","MEAN_MOTION":14.6320017,"ECCENTRICITY":0.00545313,"INCLINATION":74.0564,"RA_OF_ASC_NODE":295.9292,"ARG_OF_PERICENTER":325.1029,"MEAN_ANOMALY":104.4197,"EPHEMERIS_TYPE":0,"CLASSIFICATION_TYPE":"U","NORAD_CAT_ID":33835,"ELEMENT_SET_NO":999,"REV_AT_EPOCH":90051,"BSTAR":0.00086501234,"MEAN_MOTION_DOT":4.521e-5,"MEAN_MOTION_DDOT":0}]
